{
  "type": "FeatureCollection",
  "features": [
    {
      "type": "Feature",
      "properties": {
        "norad_id": 66794,
        "name": "STARLINK-36062",
        "group": "last-30-days",
        "lat": -21.280364286820376,
        "lon": -166.49780838521744,
        "alt_km": 355.19790711036694,
        "timestamp": "2025-12-18T07:01:53.341075+00:00",
        "meta_object_name": "STARLINK-36062",
        "meta_object_id": "2025-278D",
        "meta_epoch": "2025-12-17T22:00:01.999584",
        "meta_mean_motion": 15.73409264,
        "meta_eccentricity": 0.0001409,
        "meta_inclination": 42.9987,
        "meta_ra_of_asc_node": 220.4857,
        "meta_arg_of_pericenter": 271.7839,
        "meta_mean_anomaly": 83.2117,
        "meta_ephemeris_type": 0,
        "meta_classification_type": "U",
        "meta_norad_cat_id": 66794,
        "meta_element_set_no": 999,
        "meta_rev_at_epoch": 379,
        "meta_bstar": -0.015518506,
        "meta_mean_motion_dot": -0.01965785,
        "meta_mean_motion_ddot": 0,
        "tle_line1": "1 66794U 25278D   25351.91668981 -.01965785  00000+0 -15519-1 0  9994",
        "tle_line2": "2 66794  42.9987 220.4857 0001409 271.7839  83.2117 15.73409264  3794"
      },
      "geometry": {
        "type": "Point",
        "coordinates": [
          -166.49780838521744,
          -21.280364286820376
        ]
      }
    },
    {
      "type": "Feature",
      "properties": {
        "norad_id": 66795,
        "name": "STARLINK-36047",
        "group": "last-30-days",
        "lat": -18.877974965489923,
        "lon": -163.32781964172892,
        "alt_km": 354.90557783203894,
        "timestamp": "2025-12-18T07:01:53.341084+00:00",
        "meta_object_name": "STARLINK-36047",
        "meta_object_id": "2025-278E",
        "meta_epoch": "2025-12-17T22:00:01.999584",
        "meta_mean_motion": 15.73403346,
        "meta_eccentricity": 0.00017245,
        "meta_inclination": 42.9989,
        "meta_ra_of_asc_node": 220.4765,
        "meta_arg_of_pericenter": 273.4134,
        "meta_mean_anomaly": 85.4189,
        "meta_ephemeris_type": 0,
        "meta_classification_type": "U",
        "meta_norad_cat_id": 66795,
        "meta_element_set_no": 999,
        "meta_rev_at_epoch": 369,
        "meta_bstar": -0.015482648,
        "meta_mean_motion_dot": -0.01961582,
        "meta_mean_motion_ddot": 0,
        "tle_line1": "1 66795U 25278E   25351.91668981 -.01961582  00000+0 -15483-1 0  9996",
        "tle_line2": "2 66795  42.9989 220.4765 0001724 273.4134  85.4189 15.73403346  3699"
      },
      "geometry": {
        "type": "Point",
        "coordinates": [
          -163.32781964172892,
          -18.877974965489923
        ]
      }
    },
    {
      "type": "Feature",
      "properties": {
        "norad_id": 66796,
        "name": "STARLINK-35964",
        "group": "last-30-days",
        "lat": 37.65764889363764,
        "lon": -19.01061009581343,
        "alt_km": 322.89755470529144,
        "timestamp": "2025-12-18T07:01:53.341095+00:00",
        "meta_object_name": "STARLINK-35964",
        "meta_object_id": "2025-278F",
        "meta_epoch": "2025-12-17T22:00:01.999584",
        "meta_mean_motion": 15.80824873,
        "meta_eccentricity": 0.0001767,
        "meta_inclination": 42.9928,
        "meta_ra_of_asc_node": 219.2247,
        "meta_arg_of_pericenter": 261.9602,
        "meta_mean_anomaly": 230.2142,
        "meta_ephemeris_type": 0,
        "meta_classification_type": "U",
        "meta_norad_cat_id": 66796,
        "meta_element_set_no": 999,
        "meta_rev_at_epoch": 363,
        "meta_bstar": 0.00043493365,
        "meta_mean_motion_dot": 0.00087004,
        "meta_mean_motion_ddot": 0,
        "tle_line1": "1 66796U 25278F   25351.91668981  .00087004  00000+0  43493-3 0  9996",
        "tle_line2": "2 66796  42.9928 219.2247 0001767 261.9602 230.2142 15.80824873  3636"
      },
      "geometry": {
        "type": "Point",
        "coordinates": [
          -19.01061009581343,
          37.65764889363764
        ]
      }
    },
    {
      "type": "Feature",
      "properties": {
        "norad_id": 66797,
        "name": "STARLINK-36099",
        "group": "last-30-days",
        "lat": -16.42541734681106,
        "lon": -160.25192494994016,
        "alt_km": 354.59432661101346,
        "timestamp": "2025-12-18T07:01:53.341105+00:00",
        "meta_object_name": "STARLINK-36099",
        "meta_object_id": "2025-278G",
        "meta_epoch": "2025-12-17T22:00:01.999584",
        "meta_mean_motion": 15.73399759,
        "meta_eccentricity": 0.00018105,
        "meta_inclination": 42.999,
        "meta_ra_of_asc_node": 220.467,
        "meta_arg_of_pericenter": 278.2544,
        "meta_mean_anomaly": 84.406,
        "meta_ephemeris_type": 0,
        "meta_classification_type": "U",
        "meta_norad_cat_id": 66797,
        "meta_element_set_no": 999,
        "meta_rev_at_epoch": 384,
        "meta_bstar": -0.015382148,
        "meta_mean_motion_dot": -0.01910884,
        "meta_mean_motion_ddot": 0,
        "tle_line1": "1 66797U 25278G   25351.91668981 -.01910884  00000+0 -15382-1 0  9995",
        "tle_line2": "2 66797  42.9990 220.4670 0001810 278.2544  84.4060 15.73399759  3848"
      },
      "geometry": {
        "type": "Point",
        "coordinates": [
          -160.25192494994016,
          -16.42541734681106
        ]
      }
    },
    {
      "type": "Feature",
      "properties": {
        "norad_id": 66798,
        "name": "STARLINK-36041",
        "group": "last-30-days",
        "lat": -15.176546855106933,
        "lon": -158.73796045998904,
        "alt_km": 354.8608432016126,
        "timestamp": "2025-12-18T07:01:53.341117+00:00",
        "meta_object_name": "STARLINK-36041",
        "meta_object_id": "2025-278H",
        "meta_epoch": "2025-12-17T22:00:01.999584",
        "meta_mean_motion": 15.73399676,
        "meta_eccentricity": 0.00016184,
        "meta_inclination": 42.9989,
        "meta_ra_of_asc_node": 220.4615,
        "meta_arg_of_pericenter": 267.1006,
        "meta_mean_anomaly": 97.4852,
        "meta_ephemeris_type": 0,
        "meta_classification_type": "U",
        "meta_norad_cat_id": 66798,
        "meta_element_set_no": 999,
        "meta_rev_at_epoch": 363,
        "meta_bstar": -0.015416678,
        "meta_mean_motion_dot": -0.01914401,
        "meta_mean_motion_ddot": 0,
        "tle_line1": "1 66798U 25278H   25351.91668981 -.01914401  00000+0 -15417-1 0  9994",
        "tle_line2": "2 66798  42.9989 220.4615 0001618 267.1006  97.4852 15.73399676  3630"
      },
      "geometry": {
        "type": "Point",
        "coordinates": [
          -158.73796045998904,
          -15.176546855106933
        ]
      }
    },
    {
      "type": "Feature",
      "properties": {
        "norad_id": 66799,
        "name": "STARLINK-36044",
        "group": "last-30-days",
        "lat": -13.922598470551266,
        "lon": -157.24645368774546,
        "alt_km": 354.62856437433584,
        "timestamp": "2025-12-18T07:01:53.341127+00:00",
        "meta_object_name": "STARLINK-36044",
        "meta_object_id": "2025-278J",
        "meta_epoch": "2025-12-17T22:00:01.999584",
        "meta_mean_motion": 15.73402588,
        "meta_eccentricity": 0.00017448,
        "meta_inclination": 42.9989,
        "meta_ra_of_asc_node": 220.4573,
        "meta_arg_of_pericenter": 272.1123,
        "meta_mean_anomaly": 94.3897,
        "meta_ephemeris_type": 0,
        "meta_classification_type": "U",
        "meta_norad_cat_id": 66799,
        "meta_element_set_no": 999,
        "meta_rev_at_epoch": 379,
        "meta_bstar": -0.015483399,
        "meta_mean_motion_dot": -0.01961626,
        "meta_mean_motion_ddot": 0,
        "tle_line1": "1 66799U 25278J   25351.91668981 -.01961626  00000+0 -15483-1 0  9999",
        "tle_line2": "2 66799  42.9989 220.4573 0001744 272.1123  94.3897 15.73402588  3799"
      },
      "geometry": {
        "type": "Point",
        "coordinates": [
          -157.24645368774546,
          -13.922598470551266
        ]
      }
    },
    {
      "type": "Feature",
      "properties": {
        "norad_id": 66800,
        "name": "STARLINK-35996",
        "group": "last-30-days",
        "lat": -11.388987352495395,
        "lon": -154.31230628515732,
        "alt_km": 354.39477454019743,
        "timestamp": "2025-12-18T07:01:53.341137+00:00",
        "meta_object_name": "STARLINK-35996",
        "meta_object_id": "2025-278K",
        "meta_epoch": "2025-12-17T22:00:01.999584",
        "meta_mean_motion": 15.7340157,
        "meta_eccentricity": 0.00017411,
        "meta_inclination": 42.999,
        "meta_ra_of_asc_node": 220.4475,
        "meta_arg_of_pericenter": 273.7153,
        "meta_mean_anomaly": 96.6139,
        "meta_ephemeris_type": 0,
        "meta_classification_type": "U",
        "meta_norad_cat_id": 66800,
        "meta_element_set_no": 999,
        "meta_rev_at_epoch": 358,
        "meta_bstar": -0.015407368,
        "meta_mean_motion_dot": -0.01913654,
        "meta_mean_motion_ddot": 0,
        "tle_line1": "1 66800U 25278K   25351.91668981 -.01913654  00000+0 -15407-1 0  9996",
        "tle_line2": "2 66800  42.9990 220.4475 0001741 273.7153  96.6139 15.73401570  3583"
      },
      "geometry": {
        "type": "Point",
        "coordinates": [
          -154.31230628515732,
          -11.388987352495395
        ]
      }
    }
  ]
}